2025-234A               
1 66053U 25234A   25322.49246372  .00033076  00000+0  13744-2 0  9996
2 66053  97.4602  27.9398 0014748 179.4356 180.6900 15.23636346  4622
2025-234B               
1 66054U 25234B   25322.44966110  .00008670  00000+0  38717-3 0  9991
2 66054  97.5033  28.0083 0015115 170.6088 189.5433 15.21498924  4613
2025-234C               
1 66055U 25234C   25322.44718859  .00007254  00000+0  32337-3 0  9996
2 66055  97.4556  27.8283 0015799 172.3567 187.7913 15.21608926  4619
2025-234D               
1 66056U 25234D   25322.43946128  .00022876  00000+0  98207-3 0  9993
2 66056  97.4533  27.8297 0015330 172.6588 187.4876 15.22602709  4605
2025-234E               
1 66057U 25234E   25322.11731860  .00755852  00000+0  12905-1 0  9990
2 66057  97.4711  28.0735 0006514 247.1179 112.9384 15.48950293  4599
STARLINK-35552          
1 66058U 25235A   25322.50002315 -.00051686  00000+0 -92728-3 0  9990
2 66058  53.1601  41.5129 0001440  75.2425 165.9589 15.49311805  5970
STARLINK-35560          
1 66059U 25235B   25322.50002315  .00026904  00000+0  68057-3 0  9992
2 66059  53.1603  43.1806 0001450  77.4380  58.3865 15.39603338  5974
STARLINK-35558          
1 66060U 25235C   25322.49412693  .00048395  00000+0  12112-2 0  9994
2 66060  53.1625  43.4063 0000861  88.0792 272.0311 15.39645873  5878
STARLINK-35566          
1 66061U 25235D   25322.50002315 -.02040761  00000+0 -50073-1 0  9993
2 66061  53.1604  43.0386 0001538  73.1221 133.3981 15.43690067  5977
STARLINK-35421          
1 66062U 25235E   25322.50002315  .00024259  00000+0  61501-3 0  9994
2 66062  53.1613  43.2818 0001610  80.7960   3.5265 15.39595921  5976
STARLINK-35562          
1 66063U 25235F   25322.39559593  .00166683  00000+0  29263-2 0  9993
2 66063  53.1596  43.5037 0001035 110.0960 250.0160 15.49456771  5862
STARLINK-35542          
1 66064U 25235G   25322.43850139  .00072306  00000+0  18003-2 0  9997
2 66064  53.1617  43.7749 0001416  53.3170 306.7965 15.39624215  5865
