CCSDS_OMM_VERS = 2.0
CREATION_DATE  = 
ORIGINATOR     = 

OBJECT_NAME    = 2025-234A
OBJECT_ID      = 2025-234A
CENTER_NAME    = EARTH
REF_FRAME      = TEME
TIME_SYSTEM    = UTC
MEAN_ELEMENT_THEORY = SGP/SGP4

EPOCH          = 2025-11-18T11:49:08.865408
MEAN_MOTION    = 15.23636346
ECCENTRICITY   = .0014748
INCLINATION    = 97.4602
RA_OF_ASC_NODE = 27.9398
ARG_OF_PERICENTER = 179.4356
MEAN_ANOMALY   = 180.6900

EPHEMERIS_TYPE = 0
CLASSIFICATION_TYPE = U
NORAD_CAT_ID   = 66053
ELEMENT_SET_NO = 999
REV_AT_EPOCH   = 462
BSTAR          = .13744E-2
MEAN_MOTION_DOT = .33076E-3
MEAN_MOTION_DDOT = 0

CCSDS_OMM_VERS = 2.0
CREATION_DATE  = 
ORIGINATOR     = 

OBJECT_NAME    = 2025-234B
OBJECT_ID      = 2025-234B
CENTER_NAME    = EARTH
REF_FRAME      = TEME
TIME_SYSTEM    = UTC
MEAN_ELEMENT_THEORY = SGP/SGP4

EPOCH          = 2025-11-18T10:47:30.719040
MEAN_MOTION    = 15.21498924
ECCENTRICITY   = .0015115
INCLINATION    = 97.5033
RA_OF_ASC_NODE = 28.0083
ARG_OF_PERICENTER = 170.6088
MEAN_ANOMALY   = 189.5433

EPHEMERIS_TYPE = 0
CLASSIFICATION_TYPE = U
NORAD_CAT_ID   = 66054
ELEMENT_SET_NO = 999
REV_AT_EPOCH   = 461
BSTAR          = .38717E-3
MEAN_MOTION_DOT = .867E-4
MEAN_MOTION_DDOT = 0

CCSDS_OMM_VERS = 2.0
CREATION_DATE  = 
ORIGINATOR     = 

OBJECT_NAME    = 2025-234C
OBJECT_ID      = 2025-234C
CENTER_NAME    = EARTH
REF_FRAME      = TEME
TIME_SYSTEM    = UTC
MEAN_ELEMENT_THEORY = SGP/SGP4

EPOCH          = 2025-11-18T10:43:57.094176
MEAN_MOTION    = 15.21608926
ECCENTRICITY   = .0015799
INCLINATION    = 97.4556
RA_OF_ASC_NODE = 27.8283
ARG_OF_PERICENTER = 172.3567
MEAN_ANOMALY   = 187.7913

EPHEMERIS_TYPE = 0
CLASSIFICATION_TYPE = U
NORAD_CAT_ID   = 66055
ELEMENT_SET_NO = 999
REV_AT_EPOCH   = 461
BSTAR          = .32337E-3
MEAN_MOTION_DOT = .7254E-4
MEAN_MOTION_DDOT = 0

CCSDS_OMM_VERS = 2.0
CREATION_DATE  = 
ORIGINATOR     = 

OBJECT_NAME    = 2025-234D
OBJECT_ID      = 2025-234D
CENTER_NAME    = EARTH
REF_FRAME      = TEME
TIME_SYSTEM    = UTC
MEAN_ELEMENT_THEORY = SGP/SGP4

EPOCH          = 2025-11-18T10:32:49.454592
MEAN_MOTION    = 15.22602709
ECCENTRICITY   = .001533
INCLINATION    = 97.4533
RA_OF_ASC_NODE = 27.8297
ARG_OF_PERICENTER = 172.6588
MEAN_ANOMALY   = 187.4876

EPHEMERIS_TYPE = 0
CLASSIFICATION_TYPE = U
NORAD_CAT_ID   = 66056
ELEMENT_SET_NO = 999
REV_AT_EPOCH   = 460
BSTAR          = .98207E-3
MEAN_MOTION_DOT = .22876E-3
MEAN_MOTION_DDOT = 0

CCSDS_OMM_VERS = 2.0
CREATION_DATE  = 
ORIGINATOR     = 

OBJECT_NAME    = 2025-234E
OBJECT_ID      = 2025-234E
CENTER_NAME    = EARTH
REF_FRAME      = TEME
TIME_SYSTEM    = UTC
MEAN_ELEMENT_THEORY = SGP/SGP4

EPOCH          = 2025-11-18T02:48:56.327040
MEAN_MOTION    = 15.48950293
ECCENTRICITY   = .00065143
INCLINATION    = 97.4711
RA_OF_ASC_NODE = 28.0735
ARG_OF_PERICENTER = 247.1179
MEAN_ANOMALY   = 112.9384

EPHEMERIS_TYPE = 0
CLASSIFICATION_TYPE = U
NORAD_CAT_ID   = 66057
ELEMENT_SET_NO = 999
REV_AT_EPOCH   = 459
BSTAR          = .12905195E-1
MEAN_MOTION_DOT = .755852E-2
MEAN_MOTION_DDOT = 0

CCSDS_OMM_VERS = 2.0
CREATION_DATE  = 
ORIGINATOR     = 

OBJECT_NAME    = STARLINK-35552
OBJECT_ID      = 2025-235A
CENTER_NAME    = EARTH
REF_FRAME      = TEME
TIME_SYSTEM    = UTC
MEAN_ELEMENT_THEORY = SGP/SGP4

EPOCH          = 2025-11-18T12:00:02.000160
MEAN_MOTION    = 15.49311805
ECCENTRICITY   = .000144
INCLINATION    = 53.1601
RA_OF_ASC_NODE = 41.5129
ARG_OF_PERICENTER = 75.2425
MEAN_ANOMALY   = 165.9589

EPHEMERIS_TYPE = 0
CLASSIFICATION_TYPE = U
NORAD_CAT_ID   = 66058
ELEMENT_SET_NO = 999
REV_AT_EPOCH   = 597
BSTAR          = -.92728E-3
MEAN_MOTION_DOT = -.51686E-3
MEAN_MOTION_DDOT = 0

CCSDS_OMM_VERS = 2.0
CREATION_DATE  = 
ORIGINATOR     = 

OBJECT_NAME    = STARLINK-35560
OBJECT_ID      = 2025-235B
CENTER_NAME    = EARTH
REF_FRAME      = TEME
TIME_SYSTEM    = UTC
MEAN_ELEMENT_THEORY = SGP/SGP4

EPOCH          = 2025-11-18T12:00:02.000160
MEAN_MOTION    = 15.39603338
ECCENTRICITY   = .000145
INCLINATION    = 53.1603
RA_OF_ASC_NODE = 43.1806
ARG_OF_PERICENTER = 77.4380
MEAN_ANOMALY   = 58.3865

EPHEMERIS_TYPE = 0
CLASSIFICATION_TYPE = U
NORAD_CAT_ID   = 66059
ELEMENT_SET_NO = 999
REV_AT_EPOCH   = 597
BSTAR          = .68057E-3
MEAN_MOTION_DOT = .26904E-3
MEAN_MOTION_DDOT = 0

CCSDS_OMM_VERS = 2.0
CREATION_DATE  = 
ORIGINATOR     = 

OBJECT_NAME    = STARLINK-35558
OBJECT_ID      = 2025-235C
CENTER_NAME    = EARTH
REF_FRAME      = TEME
TIME_SYSTEM    = UTC
MEAN_ELEMENT_THEORY = SGP/SGP4

EPOCH          = 2025-11-18T11:51:32.566752
MEAN_MOTION    = 15.39645873
ECCENTRICITY   = .0000861
INCLINATION    = 53.1625
RA_OF_ASC_NODE = 43.4063
ARG_OF_PERICENTER = 88.0792
MEAN_ANOMALY   = 272.0311

EPHEMERIS_TYPE = 0
CLASSIFICATION_TYPE = U
NORAD_CAT_ID   = 66060
ELEMENT_SET_NO = 999
REV_AT_EPOCH   = 587
BSTAR          = .12112E-2
MEAN_MOTION_DOT = .48395E-3
MEAN_MOTION_DDOT = 0

CCSDS_OMM_VERS = 2.0
CREATION_DATE  = 
ORIGINATOR     = 

OBJECT_NAME    = STARLINK-35566
OBJECT_ID      = 2025-235D
CENTER_NAME    = EARTH
REF_FRAME      = TEME
TIME_SYSTEM    = UTC
MEAN_ELEMENT_THEORY = SGP/SGP4

EPOCH          = 2025-11-18T12:00:02.000160
MEAN_MOTION    = 15.43690067
ECCENTRICITY   = .0001538
INCLINATION    = 53.1604
RA_OF_ASC_NODE = 43.0386
ARG_OF_PERICENTER = 73.1221
MEAN_ANOMALY   = 133.3981

EPHEMERIS_TYPE = 0
CLASSIFICATION_TYPE = U
NORAD_CAT_ID   = 66061
ELEMENT_SET_NO = 999
REV_AT_EPOCH   = 597
BSTAR          = -.50073E-1
MEAN_MOTION_DOT = -.2040761E-1
MEAN_MOTION_DDOT = 0

CCSDS_OMM_VERS = 2.0
CREATION_DATE  = 
ORIGINATOR     = 

OBJECT_NAME    = STARLINK-35421
OBJECT_ID      = 2025-235E
CENTER_NAME    = EARTH
REF_FRAME      = TEME
TIME_SYSTEM    = UTC
MEAN_ELEMENT_THEORY = SGP/SGP4

EPOCH          = 2025-11-18T12:00:02.000160
MEAN_MOTION    = 15.39595921
ECCENTRICITY   = .000161
INCLINATION    = 53.1613
RA_OF_ASC_NODE = 43.2818
ARG_OF_PERICENTER = 80.7960
MEAN_ANOMALY   = 3.5265

EPHEMERIS_TYPE = 0
CLASSIFICATION_TYPE = U
NORAD_CAT_ID   = 66062
ELEMENT_SET_NO = 999
REV_AT_EPOCH   = 597
BSTAR          = .61501E-3
MEAN_MOTION_DOT = .24259E-3
MEAN_MOTION_DDOT = 0

CCSDS_OMM_VERS = 2.0
CREATION_DATE  = 
ORIGINATOR     = 

OBJECT_NAME    = STARLINK-35562
OBJECT_ID      = 2025-235F
CENTER_NAME    = EARTH
REF_FRAME      = TEME
TIME_SYSTEM    = UTC
MEAN_ELEMENT_THEORY = SGP/SGP4

EPOCH          = 2025-11-18T09:29:39.488352
MEAN_MOTION    = 15.49456771
ECCENTRICITY   = .0001035
INCLINATION    = 53.1596
RA_OF_ASC_NODE = 43.5037
ARG_OF_PERICENTER = 110.0960
MEAN_ANOMALY   = 250.0160

EPHEMERIS_TYPE = 0
CLASSIFICATION_TYPE = U
NORAD_CAT_ID   = 66063
ELEMENT_SET_NO = 999
REV_AT_EPOCH   = 586
BSTAR          = .29263E-2
MEAN_MOTION_DOT = .166683E-2
MEAN_MOTION_DDOT = 0

CCSDS_OMM_VERS = 2.0
CREATION_DATE  = 
ORIGINATOR     = 

OBJECT_NAME    = STARLINK-35542
OBJECT_ID      = 2025-235G
CENTER_NAME    = EARTH
REF_FRAME      = TEME
TIME_SYSTEM    = UTC
MEAN_ELEMENT_THEORY = SGP/SGP4

EPOCH          = 2025-11-18T10:31:26.520096
MEAN_MOTION    = 15.39624215
ECCENTRICITY   = .0001416
INCLINATION    = 53.1617
RA_OF_ASC_NODE = 43.7749
ARG_OF_PERICENTER = 53.3170
MEAN_ANOMALY   = 306.7965

EPHEMERIS_TYPE = 0
CLASSIFICATION_TYPE = U
NORAD_CAT_ID   = 66064
ELEMENT_SET_NO = 999
REV_AT_EPOCH   = 586
BSTAR          = .18003E-2
MEAN_MOTION_DOT = .72306E-3
MEAN_MOTION_DDOT = 0

